STARLINK-32003          
1 60097U 24117G   25275.66307276 -.00001082  00000+0 -24433-4 0  9997
2 60097  53.1588  51.0173 0001244  69.0613 291.0521 15.30186919 72694
STARLINK-32026          
1 60098U 24117H   25275.86850557  .00002262  00000+0  88463-4 0  9997
2 60098  53.1610  50.1671 0001293  58.8404 301.2723 15.30200487 72721
STARLINK-31732          
1 60099U 24117J   25275.57453613  .00001633  00000+0  67270-4 0  9992
2 60099  53.1619  51.1742 0001335  79.3505 280.7646 15.30191502 72685
STARLINK-31996          
1 60100U 24117K   25275.84950965  .00004733  00000+0  17186-3 0  9991
2 60100  53.1611  50.0444 0001214  74.6791 285.4344 15.30191222 72729
STARLINK-31999          
1 60101U 24117L   25275.69894389 -.00003253  00000+0 -97714-4 0  9996
2 60101  53.1617  51.2417 0001231  82.8000 277.3141 15.30215143 72692
STARLINK-31954          
1 60102U 24117M   25275.69261192  .00004093  00000+0  15029-3 0  9996
2 60102  53.1612  51.2013 0001289 102.0396 258.0749 15.30190465 72695
STARLINK-32013          
1 60103U 24117N   25275.62413521  .00001666  00000+0  68364-4 0  9999
2 60103  53.1609  51.4852 0001128  92.1251 267.9879 15.30193617 72680
STARLINK-32009          
1 60104U 24117P   25275.76742775  .00011855  00000+0  41163-3 0  9999
2 60104  53.1609  50.9308 0001236  78.3867 281.7273 15.30208097 72704
STARLINK-32018          
1 60105U 24117Q   25275.74525929  .00003305  00000+0  12366-3 0  9992
2 60105  53.1606  50.8170 0001215  91.4339 268.6801 15.30202958 72706
STARLINK-32045          
1 60106U 24117R   25275.68314499 -.00002539  00000+0 -73671-4 0  9991
2 60106  53.1605  51.1413 0001222 117.4291 242.6834 15.30174620 72694
STARLINK-32035          
1 60107U 24117S   25275.73471808  .00029522  00000+0  10041-2 0  9995
2 60107  53.1582  50.7523 0001061  77.4621 282.6498 15.30226127 72701
STARLINK-32042          
1 60108U 24117T   25275.72520516  .00000991  00000+0  45555-4 0  9995
2 60108  53.1611  50.6897 0001326  78.0052 282.1097 15.30216075 72708
STARLINK-32040          
1 60109U 24117U   25275.64196277  .00000924  00000+0  43337-4 0  9992
2 60109  53.1623  50.8857 0001071  93.4916 266.6208 15.30189161 72691
STARLINK-32001          
1 60110U 24117V   25275.78105882  .00017178  00000+0  59244-3 0  9993
2 60110  53.1615  50.3267 0002093  81.6892 278.4346 15.30107212 72715
STARLINK-32015          
1 60111U 24117W   25275.64407018  .00002734  00000+0  10439-3 0  9990
2 60111  53.1601  50.8928 0001101  78.8642 281.2483 15.30204545 72698
STARLINK-32024          
1 60112U 24117X   25275.78736336  .00003235  00000+0  12129-3 0  9999
2 60112  53.1614  50.3651 0001425  90.6870 269.4294 15.30201592 72715
STARLINK-11201 [DTC]    
1 60113U 24118A   25275.30974714  .00001984  00000+0  21218-4 0  9992
2 60113  53.1588 282.3346 0001203  78.3193 281.7959 15.69725191 73117
STARLINK-11198 [DTC]    
1 60114U 24118B   25275.43217720  .00005419  00000+0  49506-4 0  9991
2 60114  53.1583 281.6748 0001357  75.8705 284.2464 15.69737502 73132
STARLINK-11112 [DTC]    
1 60115U 24118C   25275.42728097  .00003254  00000+0  31711-4 0  9999
2 60115  53.1572 281.6408 0001307 107.1831 252.9330 15.69706632 73132
STARLINK-11210 [DTC]    
1 60116U 24118D   25275.42237839  .00001386  00000+0  16303-4 0  9993
2 60116  53.1575 281.6109 0001642  56.1632 303.9542 15.69710861 73139
STARLINK-11203 [DTC]    
1 60117U 24118E   25275.41746477 -.00005222  00000+0 -38208-4 0  9999
2 60117  53.1576 281.5762 0000894  72.6567 287.4548 15.69748757 73130
STARLINK-11177 [DTC]    
1 60118U 24118F   25275.41256495  .00001201  00000+0  14775-4 0  9990
2 60118  53.1578 281.5420 0001844  57.7041 302.4155 15.69713800 73134
STARLINK-11127 [DTC]    
1 60119U 24118G   25275.21666841  .00009871  00000+0  86261-4 0  9999
2 60119  53.1567 282.4528 0001269  81.7716 278.3446 15.69702299 73100
STARLINK-11164 [DTC]    
1 60120U 24118H   25275.59377419  .00035866  00000+0  29923-3 0  9996
2 60120  53.1567 280.5380 0001260  58.0047 302.1093 15.69740888 73168
STARLINK-11119 [DTC]    
1 60121U 24118J   25275.45169877  .00002146  00000+0  22552-4 0  9996
2 60121  53.1580 281.0672 0001300  74.6194 285.4968 15.69726702 73147
STARLINK-11157 [DTC]    
1 60122U 24118K   25275.20193583 -.00001027  00000+0 -36148-5 0  9997
2 60122  53.1581 282.3555 0001352  92.9617 267.1556 15.69714221 73102
STARLINK-11162 [DTC]    
1 60123U 24118L   25275.44679564  .00002728  00000+0  27362-4 0  9996
2 60123  53.1573 281.0351 0001354  96.5524 263.5648 15.69715933 73140
STARLINK-11161 [DTC]    
1 60124U 24118M   25275.31465883 -.00001352  00000+0 -62922-5 0  9996
2 60124  53.1579 282.3651 0001216 105.7699 254.3453 15.69724464 73115
STARLINK-11160 [DTC]    
1 60125U 24118N   25275.39786626  .00035678  00000+0  29804-3 0  9992
2 60125  53.1565 281.4440 0001532  74.3824 285.7363 15.69713007 73130
STARLINK-31846          
1 60126U 24118P   25275.67258762  .00020664  00000+0  70733-3 0  9995
2 60126  53.1600  40.6636 0000932 112.4472 247.6628 15.30224478 71506
STARLINK-31840          
1 60127U 24118Q   25275.67887234  .00009282  00000+0  32481-3 0  9999
2 60127  53.1611  40.7069 0001041  97.9306 262.1813 15.30229515 71500
STARLINK-31813          
1 60128U 24118R   25275.67574852  .00001071  00000+0  48303-4 0  9998
2 60128  53.1620  40.6858 0001335  83.2375 276.8778 15.30187113 71505
STARLINK-31845          
1 60129U 24118S   25275.67310274  .00001680  00000+0  68858-4 0  9998
2 60129  53.1612  38.5306 0001346  92.2475 267.8680 15.30197268 71531
STARLINK-31838          
1 60130U 24118T   25275.68526456 -.00000150  00000+0  70580-5 0  9990
2 60130  53.1615  40.7410 0001579  78.3975 281.7203 15.30149388 71508
STARLINK-31785          
1 60131U 24118U   25275.66835702  .00003547  00000+0  13188-3 0  9997
2 60131  53.1616  40.6370 0000783  72.8169 287.2918 15.30185264 71501
STARLINK-31792          
1 60132U 24118V   25275.65621128  .00002282  00000+0  89168-4 0  9999
2 60132  53.1616  38.3862 0001200 106.5558 253.5575 15.30197965 71533
STARLINK-32043          
1 60135U 24120A   25275.40896594 -.00002801  00000+0 -82479-4 0  9996
2 60135  53.1632 335.0554 0001482  89.8926 270.2244 15.30202599 72140
STARLINK-32112          
1 60136U 24120B   25275.44062509  .00003047  00000+0  11505-3 0  9994
2 60136  53.1620 335.2545 0001348  96.5191 263.5963 15.30174770 72221
STARLINK-32050          
1 60137U 24120C   25275.44696463  .00070415  00000+0  23654-2 0  9997
2 60137  53.1593 335.2962 0001396 100.2654 259.8504 15.30223598 72147
STARLINK-32025          
1 60138U 24120D   25275.45739787  .00003241  00000+0  12153-3 0  9992
2 60138  53.1585 334.6446 0001157  97.3382 262.7751 15.30194294 72156
STARLINK-31867          
1 60139U 24120E   25275.43460727  .00017378  00000+0  58936-3 0  9991
2 60139  53.1604 335.2261 0001475  86.0640 274.0530 15.30645327 72144
STARLINK-31694          
1 60140U 24120F   25275.43851402  .00000941  00000+0  43930-4 0  9994
2 60140  53.1608 335.2420 0001433  73.0609 287.0549 15.30183579 72221
STARLINK-32036          
1 60141U 24120G   25275.43745948  .00003113  00000+0  11729-3 0  9996
2 60141  53.1612 335.2341 0001382 101.5332 258.5824 15.30173198 72227
STARLINK-32031          
1 60142U 24120H   25275.43112333  .00003755  00000+0  13893-3 0  9999
2 60142  53.1617 335.1941 0001254 108.4642 251.6495 15.30176749 72229
STARLINK-32027          
1 60143U 24120J   25275.45316230  .00005172  00000+0  18672-3 0  9999
2 60143  53.1606 334.5806 0001459  88.3807 271.7361 15.30184321 72238
STARLINK-32033          
1 60144U 24120K   25275.49327333  .00019437  00000+0  66620-3 0  9995
2 60144  53.1612 334.8709 0001328  96.6471 263.4681 15.30222282 72158
STARLINK-32029          
1 60145U 24120L   25275.48694454  .00004412  00000+0  16111-3 0  9993
2 60145  53.1615 334.8301 0001099  98.8764 261.2361 15.30175492 72155
STARLINK-32127          
1 60146U 24120M   25275.45104795 -.00012878  00000+0 -42311-3 0  9993
2 60146  53.1591 334.6089 0000887  98.5475 261.5626 15.30223714 72158
STARLINK-32019          
1 60147U 24120N   25275.78711618  .00002711  00000+0  10354-3 0  9993
2 60147  53.1595 333.1465 0001228 113.6700 246.4429 15.30223202 72206
STARLINK-32021          
1 60148U 24120P   25275.40166690  .00002102  00000+0  83137-4 0  9991
2 60148  53.1618 325.0579 0001460  81.5980 278.5186 15.30177243 72366
STARLINK-32022          
1 60149U 24120Q   25275.47745245  .00013215  00000+0  45745-3 0  9997
2 60149  53.1606 334.7683 0001406 106.1715 253.9441 15.30203249 72230
STARLINK-32014          
1 60150U 24120R   25275.46794900  .00002102  00000+0  83117-4 0  9999
2 60150  53.1606 334.7079 0001149 111.2709 248.8415 15.30182223 72158
STARLINK-32004          
1 60151U 24120S   25275.47111472  .00002264  00000+0  88603-4 0  9992
2 60151  53.1610 334.7306 0001243 115.2685 244.8445 15.30182599 72233
STARLINK-32147          
1 60152U 24120T   25275.44168763  .00008357  00000+0  29403-3 0  9996
2 60152  53.1600 335.2592 0001257  81.0639 279.0504 15.30191822 72145
STARLINK-32131          
1 60153U 24120U   25275.49010921  .00002783  00000+0  10613-3 0  9994
2 60153  53.1615 334.8495 0001466  89.3345 270.7823 15.30179395 72239
STARLINK-32145          
1 60154U 24120V   25275.46372757  .00001470  00000+0  61775-4 0  9998
2 60154  53.1599 334.6819 0001009  90.0871 270.0245 15.30185455 72151
STARLINK-32137          
1 60155U 24120W   25275.48061679  .00005797  00000+0  20777-3 0  9991
2 60155  53.1609 334.7839 0001301  98.9089 261.2059 15.30190476 72154
STARLINK-32048          
1 60156U 24120X   25275.48379654  .00001403  00000+0  59569-4 0  9999
2 60156  53.1614 334.8109 0001833  72.6214 287.4987 15.30160097 72157
STARLINK-32129          
1 60157U 24120Y   25275.44801808  .00024024  00000+0  82036-3 0  9995
2 60157  53.1583 335.2975 0001520  65.4112 294.7047 15.30210317 72226
